{
    "links": {
        "self": "http://www.neowsapp.com/rest/v1/neo/3102777?api_key=iIulBulltgU6a56xZRHN4H3l9WmuAYTsLGpBGhQ2"
    },
    "id": "3102777",
    "neo_reference_id": "3102777",
    "name": "(2002 AN129)",
    "designation": "2002 AN129",
    "nasa_jpl_url": "http://ssd.jpl.nasa.gov/sbdb.cgi?sstr=3102777",
    "absolute_magnitude_h": 26.2,
    "estimated_diameter": {
        "kilometers": {
            "estimated_diameter_min": 0.0152951935,
            "estimated_diameter_max": 0.0342010925
        },
        "meters": {
            "estimated_diameter_min": 15.2951935344,
            "estimated_diameter_max": 34.201092472
        },
        "miles": {
            "estimated_diameter_min": 0.0095039897,
            "estimated_diameter_max": 0.021251567
        },
        "feet": {
            "estimated_diameter_min": 50.1810827555,
            "estimated_diameter_max": 112.2083122258
        }
    },
    "is_potentially_hazardous_asteroid": false,
    "close_approach_data": [
        {
            "close_approach_date": "2002-01-17",
            "close_approach_date_full": "2002-Jan-17 11:16",
            "epoch_date_close_approach": 1011266160000,
            "relative_velocity": {
                "kilometers_per_second": "11.8121801627",
                "kilometers_per_hour": "42523.8485858608",
                "miles_per_hour": "26422.6658060311"
            },
            "miss_distance": {
                "astronomical": "0.0119425413",
                "lunar": "4.6456485657",
                "kilometers": "1786578.740867031",
                "miles": "1110128.5522297878"
            },
            "orbiting_body": "Earth"
        }
    ],
    "orbital_data": {
        "orbit_id": "7",
        "orbit_determination_date": "2017-04-06 09:15:32",
        "first_observation_date": "2002-01-14",
        "last_observation_date": "2002-01-15",
        "data_arc_in_days": 1,
        "observations_used": 9,
        "orbit_uncertainty": "9",
        "minimum_orbit_intersection": ".00206353",
        "jupiter_tisserand_invariant": "3.867",
        "epoch_osculation": "2452289.5",
        "eccentricity": ".5250765464955554",
        "semi_major_axis": "1.818731900284006",
        "inclination": ".2884704655329451",
        "ascending_node_longitude": "93.98263129197647",
        "orbital_period": "895.8833253673814",
        "perihelion_distance": ".8637584350815812",
        "perihelion_argument": "74.42018253249788",
        "aphelion_distance": "2.77370536548643",
        "perihelion_time": "2452328.602736475850",
        "mean_anomaly": "344.2870329955819",
        "mean_motion": ".40183804051981",
        "equinox": "J2000",
        "orbit_class": {
            "orbit_class_type": "APO",
            "orbit_class_description": "Near-Earth asteroid orbits which cross the Earth’s orbit similar to that of 1862 Apollo",
            "orbit_class_range": "a (semi-major axis) > 1.0 AU; q (perihelion) < 1.017 AU"
        }
    },
    "is_sentry_object": false
}